XRISM                   
1 57800U 23137A   24031.77394776  .00005423  00000+0  42565-3 0  9994
2 57800  31.0027 166.0751 0009864 288.1259  71.8302 14.99416619 21951
